<?xml version="1.0" encoding="UTF-8"?>
<kml xmlns="http://www.opengis.net/kml/2.2" xmlns:gx="http://www.google.com/kml/ext/2.2" xmlns:kml="http://www.opengis.net/kml/2.2" xmlns:atom="http://www.w3.org/2005/Atom">
<Document>
	<name>Circle 5KM Measure.kml</name>
	<Style id="inline">
		<LineStyle>
			<color>ff0000ff</color>
			<width>3</width>
		</LineStyle>
	</Style>
	<Style id="inline0">
		<LineStyle>
			<color>ff0000ff</color>
			<width>3</width>
		</LineStyle>
	</Style>
	<StyleMap id="inline1">
		<Pair>
			<key>normal</key>
			<styleUrl>#inline</styleUrl>
		</Pair>
		<Pair>
			<key>highlight</key>
			<styleUrl>#inline0</styleUrl>
		</Pair>
	</StyleMap>
	<Placemark>
		<name>Circle Measure</name>
		<description>Nearby 5KM</description>
		<styleUrl>#inline1</styleUrl>
		<gx:balloonVisibility>1</gx:balloonVisibility>
		<LineString>
			<tessellate>1</tessellate>
			<coordinates>
				74.87864662350549,17.69856301766321,682.872209356673 74.88278350021818,17.69844581820997,637.0301620577452 74.88689389117555,17.69798545589028,643.5867254990999 74.89094648421366,17.69718543769502,651.7166045890334 74.89491040844577,17.69605185801207,659.8472404957951 74.89875546991979,17.69459335209773,644.070113201259 74.90245238206305,17.69282103015369,648.8577144288245 74.90597298914055,17.69074839251725,681.6360546052285 74.9092904810111,17.6883912266176,638.6083505010181 74.91237959753262,17.68576748649111,631.6459446898034 74.91521682105109,17.68289715578198,620.084194402413 74.91778055550195,17.67980209528143,620.5533391548187 74.92005129075797,17.67650587617631,605.1376827229203 74.92201175097432,17.67303360028682,602.6803056391661 74.92364702580647,17.66941170867215,599.5377594517048 74.9249446835116,17.6656677800703,600.5011131230692 74.92589486508399,17.66183032071516,605.1876224523016 74.92649035872438,17.65792854713835,627.4063176449671 74.92672665409232,17.65399216361522,626.5849292391277 74.92660197595009,17.65005113595382,616.5703510660855 74.92611729696208,17.64613546335156,609.7832339461977 74.92527632957352,17.64227495005737,622.4991553109609 74.92408549705377,17.63849897857681,623.2842346863678 74.92255388394371,17.63483628614391,630.276367689533 74.92069316630602,17.6313147461572,633.6727735676523 74.91851752232631,17.62796115623769,633.4304185271992 74.91604352396156,17.62480103451525,646.5574959037211 74.91329001047352,17.62185842568532,666.3935755263038 74.91027794481919,17.61915571830339,668.2307360797904 74.90703025399738,17.61671347469783,653.6427083086365 74.90357165456921,17.6145502747857,644.5164826372687 74.89992846467909,17.61268257497008,632.9814265671051 74.89612840400216,17.61112458318295,631.3228204343944 74.89220038313191,17.60988815101561,625.5493358076789 74.88817428399955,17.60898268374888,626.292908440588 74.88408073298147,17.60841506896077,620.6520618333037 74.87995086840502,17.60818962424883,624.3519212510406 74.87581610420209,17.60830806446054,626.6101717148233 74.87170789149016,17.60876948867844,622.9504897496299 74.86765747987317,17.60957038705761,618.0818134168004 74.86369568025852,17.61070466746435,618.2650866242352 74.85985263097419,17.61216370171553,618.4633048212706 74.8561575689466,17.61393639107068,618.6793396328543 74.85263860766327,17.61600925048397,621.7298982490752 74.84932252359438,17.61836651098177,625.4846559465045 74.84623455268641,17.62099023939482,627.8987159735462 74.8433981984668,17.62386047454253,633.1235991830046 74.84083505321446,17.62695537884288,634.2024508763376 74.83856463355474,17.63025140420392,640.3148637941066 74.8366042317309,17.63372347094445,645.243172502744 74.83496878369027,17.63734515839186,643.8753514206733 74.83367075499618,17.64108890571602,644.5379677927556 74.83272004544727,17.64492622147877,644.8623936692145 74.83212391314392,17.64882790031186,652.616551712649 74.83188691859829,17.65276424507979,659.9485521067825 74.83201088933153,17.65670529284154,660.8499520850869 74.83249490524929,17.66062104289384,655.6587904365256 74.83333530492862,17.66448168516163,657.6415335459101 74.8345257127895,17.66825782719645,655.4490006681239 74.83605708696591,17.67192071805258,652.6576453278307 74.8379177875324,17.6754424673327,652.9793327503717 74.84009366458476,17.67879625772992,659.0017915864539 74.84256816552073,17.68195654944121,666.1469308398313 74.84532246071724,17.68489927488787,670.189227849968 74.84833558665731,17.68760202225141,669.9229855563785 74.85158460542392,17.69004420641775,675.5950147326097 74.85504477934913,17.69220722601819,685.6080366760168 74.85868975948793,17.69407460536096,694.5546123940713 74.86249178647724,17.69563212016312,697.6129011260011 74.86642190224234,17.69686790611566,683.1997481413472 74.87045017092697,17.697772549447,667.831525896839 74.87454590735051,17.69833915878746,673.2460794572861 74.87864662350549,17.69856301766321,682.872209356673 
			</coordinates>
		</LineString>
		<atom:link rel="app" href="https://www.google.com/earth/about/versions/#earth-pro" title="Google Earth Pro 7.3.7.1327"></atom:link>
	</Placemark>
</Document>
</kml>
